XRISM                   
1 57800U 23137A   26068.90477086  .00006492  00000+0  36816-3 0  9996
2 57800  31.0015 282.2731 0008004  40.7626 319.3610 15.11505182137827
UMBRA-09                
1 60541U 24149CB  26068.82792263  .00023181  00000+0  12497-2 0  9996
2 60541  97.6984 154.5768 0001111 266.3706  93.7398 15.14785586 85665
